[{"OBJECT_NAME":"COSMOS 2523","OBJECT_ID":"2017-037E","EPOCH":"2026-03-09T23:01:03.762912","MEAN_MOTION":14.95066265,"ECCENTRICITY":0.0066686,"INCLINATION":97.5062,"RA_OF_ASC_NODE":86.2978,"ARG_OF_PERICENTER":201.8356,"MEAN_ANOMALY":158.0021,"EPHEMERIS_TYPE":0,"CLASSIFICATION_TYPE":"U","NORAD_CAT_ID":42986,"ELEMENT_SET_NO":999,"REV_AT_EPOCH":45413,"BSTAR":0.00015362789,"MEAN_MOTION_DOT":1.699e-5,"MEAN_MOTION_DDOT":0},{"OBJECT_NAME":"STARLINK-4796","OBJECT_ID":"2022-119Z","EPOCH":"2026-03-09T21:42:46.422144","MEAN_MOTION":15.08834839,"ECCENTRICITY":0.00013234,"INCLINATION":53.2179,"RA_OF_ASC_NODE":313.4174,"ARG_OF_PERICENTER":102.2266,"MEAN_ANOMALY":257.8874,"EPHEMERIS_TYPE":0,"CLASSIFICATION_TYPE":"U","NORAD_CAT_ID":53909,"ELEMENT_SET_NO":999,"REV_AT_EPOCH":19185,"BSTAR":-1.8195699e-5,"MEAN_MOTION_DOT":-5.77e-6,"MEAN_MOTION_DDOT":0}]
